STARLINK-36880          
1 67976U 26038R   26063.83336806 -.01383122  62707-3 -21529-2 0  9996
2 67976  97.2751  73.7333 0001135  67.4009 204.9030 16.04196475  2418
STARLINK-36904          
1 67977U 26038S   26063.83336806 -.01382439  62842-3 -21193-2 0  9994
2 67977  97.2747  73.7350 0001122  66.9977 209.8202 16.04451710  2418
STARLINK-36364          
1 67978U 26038T   26063.83336806 -.01374534  62504-3 -20525-2 0  9995
2 67978  97.2743  73.7384 0001180  68.2555 216.1221 16.04887989  2416
STARLINK-36359          
1 67979U 26038U   26063.83336806 -.01373550  61981-3 -21247-2 0  9993
2 67979  97.2748  73.7337 0001146  70.0208 204.2056 16.04299671  2417
STARLINK-36882          
1 67980U 26038V   26063.83336806 -.01384274  63220-3 -20849-2 0  9995
2 67980  97.2744  73.7372 0001222  65.2939 216.5662 16.04746576  2416
STARLINK-36874          
1 67981U 26038W   26063.83336806 -.01368440  62065-3 -20313-2 0  9995
2 67981  97.2744  73.7392 0001169  62.9642 223.2945 16.04986077  2415
STARLINK-36879          
1 67982U 26038X   26063.83336806 -.01363466  61742-3 -20083-2 0  9994
2 67982  97.2741  73.7401 0001090  63.5918 224.9324 16.05113356  2412
STARLINK-36867          
1 67983U 26038Y   26063.83336806 -.01370788  62562-3 -19867-2 0  9999
2 67983  97.2740  73.7423 0001181  64.6362 228.4852 16.05381691  2416
STARLINK-36266          
1 67984U 26038Z   26063.83336806 -.01372551  62622-3 -20034-2 0  9995
2 67984  97.2741  73.7414 0001196  63.2129 227.8248 16.05264714  2384
STARLINK-36802          
1 67985U 26038AA  26063.83336806 -.01350991  60971-3 -19458-2 0  9993
2 67985  97.2739  73.7429 0001142  68.6876 226.3446 16.05481721  2414
STARLINK-36535          
1 67986U 26039A   26062.58336806 -.01224918  48269-3 -21112-2 0  9991
2 67986  42.9991  92.9731 0001745 278.5695 344.8084 16.01492659  1894
STARLINK-36744          
1 67987U 26039B   26062.58336806 -.01220295  47981-3 -20928-2 0  9990
2 67987  42.9990  92.9709 0001729 277.3159 346.8529 16.01576759  1893
STARLINK-36734          
1 67988U 26039C   26062.58336806 -.01216341  47771-3 -20687-2 0  9997
2 67988  42.9990  92.9690 0001748 277.6394 347.3229 16.01717704  1898
STARLINK-36957          
1 67989U 26039D   26062.58336806 -.01207716  47204-3 -20423-2 0  9993
2 67989  42.9989  92.9670 0001762 278.4252 347.2042 16.01813853  1897
STARLINK-36951          
1 67990U 26039E   26062.58336806 -.01203403  46966-3 -20187-2 0  9995
2 67990  42.9990  92.9652 0001818 277.2446 349.1623 16.01949740  1896
STARLINK-36941          
1 67991U 26039F   26062.58336806 -.01198456  46655-3 -20009-2 0  9995
2 67991  42.9989  92.9634 0001734 278.6654 348.3551 16.02029759  1899
